HST                     
1 20580U 90037B   20354.61865977  .00000494  00000-0  18980-4 0  9994
2 20580  28.4683 174.8772 0002523 287.3315 129.0654 15.09513991484056
POLAR                   
1 23802U 96013A   20353.76109592  .00000159  00000-0  00000+0 0  9990
2 23802  78.7072 247.5207 6153953 277.1943  21.1013  1.29846287118780
SWAS                    
1 25560U 98071A   20354.19005488  .00000262  00000-0  33084-4 0  9994
2 25560  69.8990 278.8165 0005145  45.1523 315.0050 14.93969511196832
CXO                     
1 25867U 99040B   20356.92371026  .00000452  00000-0  00000+0 0  9996
2 25867  58.9975 261.6125 8037446 226.5102   0.0336  0.37802854 20906
XMM-NEWTON              
1 25989U 99066A   20355.02895835 -.00000275  00000-0  00000+0 0  9992
2 25989  71.0229 316.2424 6844422  91.8437   0.3286  0.50131053 27310
TERRA                   
1 25994U 99068A   20354.52038407  .00000071  00000-0  25848-4 0  9993
2 25994  98.1968  66.0648 0001189  97.8102 320.8196 14.57113965117266
CLUSTER II-FM7 (SAMBA)  
1 26410U 00041A   20357.06234983  .00000543  00000-0  00000+0 0  9991
2 26410 132.3249 343.0898 4636051 187.9668 359.3730  0.44207884 23174
CLUSTER II-FM6 (SALSA)  
1 26411U 00041B   20354.87048910  .00000497  00000-0  00000-0 0  9990
2 26411 132.6422 344.5782 6025308 193.1991 359.5235  0.44218440 11456
CLUSTER II-FM5 (RUMBA)  
1 26463U 00045A   20354.86764872  .00000543  00000-0  00000-0 0  9994
2 26463 136.2814 344.3976 5608689 193.1839 359.5092  0.44218588 11342
CLUSTER II-FM8 (TANGO)  
1 26464U 00045B   20357.06182717  .00000542  00000-0  00000+0 0  9990
2 26464 132.3153 343.0841 4633164 187.9486 359.3944  0.44219094 59098
ODIN                    
1 26702U 01007A   20353.77129696  .00000608  00000-0  43310-4 0  9994
2 26702  97.5462   7.5807 0010918   5.4874 354.6472 15.08227569 83991
TIMED                   
1 26998U 01055B   20354.26062705  .00000144  00000-0  19700-4 0  9997
2 26998  74.0727 285.2837 0002395 284.5312  75.5603 14.88248815 32035
RHESSI                  
1 27370U 02004A   20353.85267728  .00003425  00000-0  10666-3 0  9999
2 27370  38.0317 130.4403 0011258  36.6880 323.4661 15.33741107 42649
INTEGRAL                
1 27540U 02048A   20350.36388860  .00000560  00000-0  00000-0 0  9995
2 27540  58.9696  99.1438 8988959 296.3111   2.0840  0.37572896 19096
CORIOLIS                
1 27640U 03001A   20354.51294919 -.00000001  00000-0  20554-4 0  9999
2 27640  98.7248   1.1117 0013454 221.7123 253.2318 14.19055872929663
SORCE                   
1 27651U 03004A   20354.47101391  .00000137  00000-0  28322-4 0  9990
2 27651  39.9971  18.1894 0023187 241.5711 118.2741 14.89204041971817
MOST                    
1 27843U 03031D   20353.87284817 -.00000021  00000-0  10368-4 0  9995
2 27843  98.7098 358.4825 0008958 283.4376  76.5802 14.20624685905780
SCISAT 1                
1 27858U 03036A   20353.86484112  .00000040  00000-0  10618-4 0  9993
2 27858  73.9312 181.0144 0008319 337.1927  22.8876 14.77318900934884
SWIFT                   
1 28485U 04047A   20354.16556102  .00000928  00000-0  32752-4 0  9994
2 28485  20.5553 171.6680 0010918 233.3605 126.5825 15.04797279881354
FORMOSAT-3 FM6          
1 29047U 06011A   20353.68519268 -.00000044  00000-0 -95011-6 0  9990
2 29047  71.9788  93.9558 0048262 104.5769 256.0727 14.28770549767632
FORMOSAT-3 FM1          
1 29048U 06011B   20353.77812919  .00000053  00000-0  37296-4 0  9997
2 29048  71.9665   4.4596 0041643  60.7149 299.8139 14.28739290770125
FORMOSAT-3 FM5          
1 29049U 06011C   20353.97913793  .00000075  00000-0  45582-4 0  9993
2 29049  72.0184 176.7469 0033229  86.9162 273.5776 14.28817195765954
FORMOSAT-3 FM3          
1 29050U 06011D   20354.06467193  .00000168  00000-0  45521-4 0  9990
2 29050  72.0160 303.7888 0050268 346.6443  13.3375 14.58991493783353
FORMOSAT-3 FM4          
1 29051U 06011E   20353.69458804  .00000096  00000-0  53151-4 0  9996
2 29051  72.0060  79.0279 0069639 324.8911  34.7646 14.28854253768507
FORMOSAT-3 FM2          
1 29052U 06011F   20353.89101673  .00000082  00000-0  48237-4 0  9992
2 29052  72.0327 153.3817 0038976  44.2159 316.2081 14.28959276766044
CLOUDSAT                
1 29107U 06016A   20353.83836247  .00000113  00000-0  31828-4 0  9997
2 29107  98.2556 300.6727 0001478 114.3772 245.7584 14.62283993779270
CALIPSO                 
1 29108U 06016B   20353.82784264  .00000168  00000-0  42667-4 0  9991
2 29108  98.2537 300.4307 0001199  76.9674 283.1661 14.62480580779268
HINODE (SOLAR-B)        
1 29479U 06041A   20353.89121025  .00000089  00000-0  25475-4 0  9997
2 29479  98.1549   4.2107 0017836 144.9444 215.2936 14.65110070760891
SJ-6C                   
1 29505U 06046A   20354.53220982  .00000605  00000-0  60673-4 0  9999
2 29505  97.8091   7.5592 0005813 128.0287 232.1472 14.94999518771263
SJ-6D                   
1 29506U 06046B   20354.38242322 -.00000061  00000-0 -34515-6 0  9991
2 29506  97.8290   7.5915 0001556 188.0929 172.0279 14.93556172770779
AGILE                   
1 31135U 07013A   20353.52190612  .00003075  00000-0  58352-4 0  9995
2 31135   2.4661 194.2645 0011609 176.2206 183.7936 15.32896093760338
AIM                     
1 31304U 07015A   20353.79940000  .00001189  00000-0  69455-4 0  9998
2 31304  97.8850 243.2340 0006637  87.3802 272.8188 15.13967047748578
FGRST (GLAST)           
1 33053U 08029A   20354.50821720  .00000616  00000-0  18468-4 0  9996
2 33053  25.5829 280.0967 0012217 351.1153   8.9165 15.11429374691362
WISE                    
1 36119U 09071A   20354.06996789  .00001099  00000-0  39828-4 0  9998
2 36119  97.3073  27.6748 0004275  88.9225 271.2506 15.30467992612050
SDO                     
1 36395U 10005A   20354.37400328 -.00000065  00000-0  00000+0 0  9994
2 36395  30.6401 118.1985 0001400 234.5835 128.5474  1.00270537 39929
CRYOSAT 2               
1 36508U 10013A   20353.75357855  .00000072  00000-0  17251-4 0  9994
2 36508  92.0163 152.3013 0004219 322.4158  37.6754 14.51906742567011
X-SAT                   
1 37389U 11015C   20354.40456895 -.00000030  00000-0  48806-5 0  9998
2 37389  98.4110  42.1672 0015297 107.7984 252.4871 14.24386346502611
GCOM-W1 (SHIZUKU)       
1 38337U 12025A   20354.11697369  .00000079  00000-0  27596-4 0  9999
2 38337  98.2115 291.4020 0002596  94.2322 276.5797 14.57112460456890
NUSTAR                  
1 38358U 12031A   20353.59527370  .00001058  00000-0  36784-4 0  9991
2 38358   6.0281  11.3393 0011521  22.8068 337.2571 14.88412783463469
NEOSSAT                 
1 39089U 13009D   20353.83154477  .00000022  00000-0  22850-4 0  9999
2 39089  98.4507 191.8634 0012406  99.0210 261.2380 14.34537100408989
IRIS                    
1 39197U 13033A   20353.79372985  .00000159  00000-0  28698-4 0  9994
2 39197  97.9590 173.9168 0027540 356.6140   3.4880 14.78792111403324
HISAKI (SPRINT-A)       
1 39253U 13049A   20353.67257266  .00000146  00000-0  11043-3 0  9996
2 39253  29.7218 338.1701 0136859 314.5762  44.3709 13.55235120359018
CASSIOPE                
1 39265U 13055A   20354.11353714  .00005000  00000-0  13826-3 0  9996
2 39265  80.9668 121.2280 0655325 122.6414 243.9756 14.30870909374175
STSAT-3                 
1 39422U 13066G   20354.13874663 -.00000340  00000-0 -29708-4 0  9997
2 39422  97.4937  17.5017 0021618 300.7865  59.1252 14.89893980384636
SWARM B                 
1 39451U 13067A   20354.44005369  .00000414  00000-0  16640-4 0  9994
2 39451  87.7558 224.4316 0001911 112.8359 247.3089 15.21873387392661
SWARM A                 
1 39452U 13067B   20354.14575135  .00001959  00000-0  40542-4 0  9998
2 39452  87.3616  63.4611 0003219  78.3723 281.7896 15.45048411397735
SWARM C                 
1 39453U 13067C   20354.14564731  .00001609  00000-0  33126-4 0  9991
2 39453  87.3469  64.0432 0003215  78.6726 281.4893 15.45046851397697
BRITE-CA1 (TORONTO)     
1 40020U 14033L   20354.50199193  .00000105  00000-0  26260-4 0  9994
2 40020  97.7298 172.1509 0086832 201.2913 158.4671 14.66689604347882
OCO 2                   
1 40059U 14035A   20353.83713795  .00000051  00000-0  21323-4 0  9998
2 40059  98.2109 291.8523 0001491  78.5586 281.5779 14.57110698343879
BRITE-PL2 (HEWELIUSZ)   
1 40119U 14049B   20353.80003626  .00000166  00000-0  26088-4 0  9992
2 40119  97.8931  84.1906 0016445 223.2010 136.7915 14.84575776343042
RESURS P2               
1 40360U 14087A   20354.54124024  .00001051  00000-0  34387-4 0  9995
2 40360  97.2404  79.7127 0007515 236.8890 180.2483 15.33869926334680
MMS 1                   
1 40482U 15011A   20347.02271236 -.00000570  00000-0  00000+0 0  9997
2 40482  31.6267 119.0743 8491054  26.5023 357.3613  0.28535818 11728
MMS 2                   
1 40483U 15011B   20344.41666667 -.00000146  00000-0  00000-0 0  9994
2 40483  31.6057 119.1338 8491514  26.3974  89.8193  0.28533956 11801
MMS 3                   
1 40484U 15011C   20349.26880407 -.00000956  00000-0  00000+0 0  9991
2 40484  31.6537 119.0785 8492315  26.5606 228.1198  0.28543162 11706
MMS 4                   
1 40485U 15011D   20344.41666667 -.00000146  00000-0  00000-0 0  9996
2 40485  31.6067 119.1341 8492858  26.3977  89.8071  0.28533920 11708
ASTROSAT                
1 40930U 15052A   20353.72689485  .00000741  00000-0  14887-4 0  9995
2 40930   5.9969 108.8054 0008719 350.3931   9.6029 14.76357708282467
DAMPE                   
1 41173U 15078A   20354.41606104  .00000145  00000-0  88933-5 0  9999
2 41173  97.3366 344.2838 0012916 326.9318 168.0323 15.23938288278565
PISAT                   
1 41784U 16059B   20354.43484621  .00000111  00000-0  30193-4 0  9994
2 41784  97.9948  45.6629 0033296  90.5920 269.9098 14.63569626225967
HXMT (HUIYAN)           
1 42758U 17034A   20354.55238123  .00000382  00000-0  37363-4 0  9993
2 42758  43.0168 100.4533 0008507 110.4479   2.2226 15.09001479193836
FLYING LAPTOP           
1 42831U 17042G   20354.13193545  .00000135  00000-0  18800-4 0  9997
2 42831  97.4938 227.1211 0015045  34.4731 325.7472 14.91206047186811
PICSAT                  
1 43132U 18004X   20354.12958435  .00002161  00000-0  89232-4 0  9995
2 43132  97.4296  64.2063 0010761 119.8334 240.3975 15.25064312163196
ZHANGZHENG-1 (CSES)     
1 43194U 18015C   20354.45234730  .00001676  00000-0  78750-4 0  9999
2 43194  97.4579 117.4042 0013101 173.9647 271.5572 15.20934316159789
ICON                    
1 44628U 19068A   20354.47128154  .00000533  00000-0  31845-4 0  9990
2 44628  26.9898 266.3970 0019064 179.6702 180.3870 14.91813738 65073
SALSAT                  
1 46495U 20068K   20353.88807628  .00000690  00000-0  55315-4 0  9992
2 46495  97.6787 286.6489 0015992 328.2442  31.7818 15.03303693 12204
